[{"OBJECT_NAME":"LEMUR-2-AMANDA-SVANTE","OBJECT_ID":"2021-034B","EPOCH":"2026-03-09T18:37:58.823328","MEAN_MOTION":15.28469003,"ECCENTRICITY":0.00027027,"INCLINATION":97.5829,"RA_OF_ASC_NODE":144.8625,"ARG_OF_PERICENTER":205.4721,"MEAN_ANOMALY":154.6385,"EPHEMERIS_TYPE":0,"CLASSIFICATION_TYPE":"U","NORAD_CAT_ID":48269,"ELEMENT_SET_NO":999,"REV_AT_EPOCH":26584,"BSTAR":0.0011134246,"MEAN_MOTION_DOT":0.00030872,"MEAN_MOTION_DDOT":0},{"OBJECT_NAME":"STARLINK-32134","OBJECT_ID":"2024-132Y","EPOCH":"2026-03-09T09:10:53.240160","MEAN_MOTION":15.30194938,"ECCENTRICITY":0.00012426,"INCLINATION":53.1611,"RA_OF_ASC_NODE":53.8358,"ARG_OF_PERICENTER":81.5362,"MEAN_ANOMALY":278.578,"EPHEMERIS_TYPE":0,"CLASSIFICATION_TYPE":"U","NORAD_CAT_ID":60300,"ELEMENT_SET_NO":999,"REV_AT_EPOCH":9151,"BSTAR":2.5126235e-5,"MEAN_MOTION_DOT":3.85e-6,"MEAN_MOTION_DDOT":0}]
